COSMOS 2251             
1 22675U 93036A   26062.71411471  .00000154  00000+0  65238-4 0  9992
2 22675  74.0405 167.9338 0025728 234.5629 125.3121 14.33232457709337
COSMOS 2251 DEB         
1 33757U 93036E   26062.76428675  .00000136  00000+0  59532-4 0  9994
2 33757  74.0376 175.6954 0014694 178.1935 296.8756 14.32604659891561
COSMOS 2251 DEB         
1 33758U 93036F   26063.13626172  .00004896  00000+0  12097-2 0  9999
2 33758  74.0268  61.6285 0013751 117.0269 324.5721 14.52260817894861
COSMOS 2251 DEB         
1 33760U 93036H   26063.15096800  .00000339  00000+0  12595-3 0  9995
2 33760  74.0316 132.0432 0021165 217.2363 169.2455 14.35732440892932
COSMOS 2251 DEB         
1 33761U 93036J   26063.12487812  .00001379  00000+0  41993-3 0  9999
2 33761  74.0340 101.1343 0022188 170.4213 253.4401 14.42819130894083
COSMOS 2251 DEB         
1 33762U 93036K   26063.20700205  .00000194  00000+0  79076-4 0  9991
2 33762  74.0426 161.0868 0015845 211.0540 169.6398 14.33694188892156
COSMOS 2251 DEB         
1 33764U 93036M   26063.12390286  .00001041  00000+0  34015-3 0  9993
2 33764  74.0325 122.3599 0020764  64.2782 322.5297 14.39700659893289
COSMOS 2251 DEB         
1 33765U 93036N   26062.79208079  .00075143  00000+0  36921-2 0  9995
2 33765  74.0023   4.7978 0057530  74.3255 286.4278 15.16211960908447
COSMOS 2251 DEB         
1 33766U 93036P   26063.15784751  .00001900  00000+0  65697-3 0  9996
2 33766  74.1885 347.0884 0063833 169.0566 191.1994 14.35244201889139
COSMOS 2251 DEB         
1 33768U 93036R   26063.13308280  .00000542  00000+0  49686-3 0  9996
2 33768  74.0664  88.4882 0368721 228.4762 189.0944 13.58545523844015
COSMOS 2251 DEB         
1 33779U 93036U   26062.97700685  .00009381  00000+0  14744-2 0  9990
2 33779  74.0460  12.8623 0012395  15.3453  27.5691 14.72623298897238
COSMOS 2251 DEB         
1 33782U 93036X   26062.64283525  .00001280  00000+0  40787-3 0  9994
2 33782  74.0324 127.8991 0020216 182.9098 296.6882 14.40696102892913
COSMOS 2251 DEB         
1 33785U 93036AA  26063.01231461  .00013605  00000+0  21348-2 0  9996
2 33785  73.8634 260.3084 0020210 187.4639 333.4313 14.72535615897020
COSMOS 2251 DEB         
1 33789U 93036AE  26063.12727576  .00001136  00000+0  76146-3 0  9992
2 33789  74.0645 309.2688 0238835  45.5531  81.1536 13.88940937862255
COSMOS 2251 DEB         
1 33791U 93036AG  26062.84806808  .00003476  00000+0  10268-2 0  9990
2 33791  74.1715 248.1527 0028873  59.7786  48.7708 14.43618454892226
COSMOS 2251 DEB         
1 33792U 93036AH  26062.83952865  .00000936  00000+0  91919-3 0  9996
2 33792  73.8995 215.7989 0429352 266.3115 217.6489 13.45993947835330
