[{"OBJECT_NAME":"COSMOS 2251","OBJECT_ID":"1993-036A","EPOCH":"2026-03-03T17:08:19.510944","MEAN_MOTION":14.33232457,"ECCENTRICITY":0.00257281,"INCLINATION":74.0405,"RA_OF_ASC_NODE":167.9338,"ARG_OF_PERICENTER":234.5629,"MEAN_ANOMALY":125.3121,"EPHEMERIS_TYPE":0,"CLASSIFICATION_TYPE":"U","NORAD_CAT_ID":22675,"ELEMENT_SET_NO":999,"REV_AT_EPOCH":70933,"BSTAR":6.5237515e-5,"MEAN_MOTION_DOT":1.54e-6,"MEAN_MOTION_DDOT":0},{"OBJECT_NAME":"COSMOS 2251 DEB","OBJECT_ID":"1993-036E","EPOCH":"2026-03-03T18:20:34.375200","MEAN_MOTION":14.32604659,"ECCENTRICITY":0.0014694,"INCLINATION":74.0376,"RA_OF_ASC_NODE":175.6954,"ARG_OF_PERICENTER":178.1935,"MEAN_ANOMALY":296.8756,"EPHEMERIS_TYPE":0,"CLASSIFICATION_TYPE":"U","NORAD_CAT_ID":33757,"ELEMENT_SET_NO":999,"REV_AT_EPOCH":89156,"BSTAR":5.9532e-5,"MEAN_MOTION_DOT":1.36e-6,"MEAN_MOTION_DDOT":0},{"OBJECT_NAME":"COSMOS 2251 DEB","OBJECT_ID":"1993-036F","EPOCH":"2026-03-04T03:16:13.012608","MEAN_MOTION":14.52260817,"ECCENTRICITY":0.0013751,"INCLINATION":74.0268,"RA_OF_ASC_NODE":61.6285,"ARG_OF_PERICENTER":117.0269,"MEAN_ANOMALY":324.5721,"EPHEMERIS_TYPE":0,"CLASSIFICATION_TYPE":"U","NORAD_CAT_ID":33758,"ELEMENT_SET_NO":999,"REV_AT_EPOCH":89486,"BSTAR":0.0012097,"MEAN_MOTION_DOT":4.896e-5,"MEAN_MOTION_DDOT":0},{"OBJECT_NAME":"COSMOS 2251 DEB","OBJECT_ID":"1993-036H","EPOCH":"2026-03-04T03:37:23.635200","MEAN_MOTION":14.3573244,"ECCENTRICITY":0.0021165,"INCLINATION":74.0316,"RA_OF_ASC_NODE":132.0432,"ARG_OF_PERICENTER":217.2363,"MEAN_ANOMALY":169.2455,"EPHEMERIS_TYPE":0,"CLASSIFICATION_TYPE":"U","NORAD_CAT_ID":33760,"ELEMENT_SET_NO":999,"REV_AT_EPOCH":89293,"BSTAR":0.00012595,"MEAN_MOTION_DOT":3.39e-6,"MEAN_MOTION_DDOT":0},{"OBJECT_NAME":"COSMOS 2251 DEB","OBJECT_ID":"1993-036J","EPOCH":"2026-03-04T02:59:49.469568","MEAN_MOTION":14.4281913,"ECCENTRICITY":0.0022188,"INCLINATION":74.034,"RA_OF_ASC_NODE":101.1343,"ARG_OF_PERICENTER":170.4213,"MEAN_ANOMALY":253.4401,"EPHEMERIS_TYPE":0,"CLASSIFICATION_TYPE":"U","NORAD_CAT_ID":33761,"ELEMENT_SET_NO":999,"REV_AT_EPOCH":89408,"BSTAR":0.00041993,"MEAN_MOTION_DOT":1.379e-5,"MEAN_MOTION_DDOT":0},{"OBJECT_NAME":"COSMOS 2251 DEB","OBJECT_ID":"1993-036K","EPOCH":"2026-03-04T04:58:04.977120","MEAN_MOTION":14.33694188,"ECCENTRICITY":0.0015845,"INCLINATION":74.0426,"RA_OF_ASC_NODE":161.0868,"ARG_OF_PERICENTER":211.054,"MEAN_ANOMALY":169.6398,"EPHEMERIS_TYPE":0,"CLASSIFICATION_TYPE":"U","NORAD_CAT_ID":33762,"ELEMENT_SET_NO":999,"REV_AT_EPOCH":89215,"BSTAR":7.9076e-5,"MEAN_MOTION_DOT":1.94e-6,"MEAN_MOTION_DDOT":0},{"OBJECT_NAME":"COSMOS 2251 DEB","OBJECT_ID":"1993-036M","EPOCH":"2026-03-04T02:58:25.207104","MEAN_MOTION":14.39700659,"ECCENTRICITY":0.0020764,"INCLINATION":74.0325,"RA_OF_ASC_NODE":122.3599,"ARG_OF_PERICENTER":64.2782,"MEAN_ANOMALY":322.5297,"EPHEMERIS_TYPE":0,"CLASSIFICATION_TYPE":"U","NORAD_CAT_ID":33764,"ELEMENT_SET_NO":999,"REV_AT_EPOCH":89328,"BSTAR":0.00034015,"MEAN_MOTION_DOT":1.041e-5,"MEAN_MOTION_DDOT":0},{"OBJECT_NAME":"COSMOS 2251 DEB","OBJECT_ID":"1993-036N","EPOCH":"2026-03-03T19:00:35.780256","MEAN_MOTION":15.1621196,"ECCENTRICITY":0.005753,"INCLINATION":74.0023,"RA_OF_ASC_NODE":4.7978,"ARG_OF_PERICENTER":74.3255,"MEAN_ANOMALY":286.4278,"EPHEMERIS_TYPE":0,"CLASSIFICATION_TYPE":"U","NORAD_CAT_ID":33765,"ELEMENT_SET_NO":999,"REV_AT_EPOCH":90844,"BSTAR":0.0036921,"MEAN_MOTION_DOT":0.00075143,"MEAN_MOTION_DDOT":0},{"OBJECT_NAME":"COSMOS 2251 DEB","OBJECT_ID":"1993-036P","EPOCH":"2026-03-04T03:47:18.024864","MEAN_MOTION":14.35244201,"ECCENTRICITY":0.0063833,"INCLINATION":74.1885,"RA_OF_ASC_NODE":347.0884,"ARG_OF_PERICENTER":169.0566,"MEAN_ANOMALY":191.1994,"EPHEMERIS_TYPE":0,"CLASSIFICATION_TYPE":"U","NORAD_CAT_ID":33766,"ELEMENT_SET_NO":999,"REV_AT_EPOCH":88913,"BSTAR":0.00065697,"MEAN_MOTION_DOT":1.9e-5,"MEAN_MOTION_DDOT":0},{"OBJECT_NAME":"COSMOS 2251 DEB","OBJECT_ID":"1993-036R","EPOCH":"2026-03-04T03:11:38.353920","MEAN_MOTION":13.58545523,"ECCENTRICITY":0.0368721,"INCLINATION":74.0664,"RA_OF_ASC_NODE":88.4882,"ARG_OF_PERICENTER":228.4762,"MEAN_ANOMALY":189.0944,"EPHEMERIS_TYPE":0,"CLASSIFICATION_TYPE":"U","NORAD_CAT_ID":33768,"ELEMENT_SET_NO":999,"REV_AT_EPOCH":84401,"BSTAR":0.00049686,"MEAN_MOTION_DOT":5.42e-6,"MEAN_MOTION_DDOT":0},{"OBJECT_NAME":"COSMOS 2251 DEB","OBJECT_ID":"1993-036U","EPOCH":"2026-03-03T23:26:53.391840","MEAN_MOTION":14.72623298,"ECCENTRICITY":0.0012395,"INCLINATION":74.046,"RA_OF_ASC_NODE":12.8623,"ARG_OF_PERICENTER":15.3453,"MEAN_ANOMALY":27.5691,"EPHEMERIS_TYPE":0,"CLASSIFICATION_TYPE":"U","NORAD_CAT_ID":33779,"ELEMENT_SET_NO":999,"REV_AT_EPOCH":89723,"BSTAR":0.0014744,"MEAN_MOTION_DOT":9.381e-5,"MEAN_MOTION_DDOT":0},{"OBJECT_NAME":"COSMOS 2251 DEB","OBJECT_ID":"1993-036X","EPOCH":"2026-03-03T15:25:40.965600","MEAN_MOTION":14.40696102,"ECCENTRICITY":0.0020216,"INCLINATION":74.0324,"RA_OF_ASC_NODE":127.8991,"ARG_OF_PERICENTER":182.9098,"MEAN_ANOMALY":296.6882,"EPHEMERIS_TYPE":0,"CLASSIFICATION_TYPE":"U","NORAD_CAT_ID":33782,"ELEMENT_SET_NO":999,"REV_AT_EPOCH":89291,"BSTAR":0.00040787,"MEAN_MOTION_DOT":1.28e-5,"MEAN_MOTION_DDOT":0},{"OBJECT_NAME":"COSMOS 2251 DEB","OBJECT_ID":"1993-036AA","EPOCH":"2026-03-04T00:17:43.982304","MEAN_MOTION":14.72535615,"ECCENTRICITY":0.002021,"INCLINATION":73.8634,"RA_OF_ASC_NODE":260.3084,"ARG_OF_PERICENTER":187.4639,"MEAN_ANOMALY":333.4313,"EPHEMERIS_TYPE":0,"CLASSIFICATION_TYPE":"U","NORAD_CAT_ID":33785,"ELEMENT_SET_NO":999,"REV_AT_EPOCH":89702,"BSTAR":0.0021348,"MEAN_MOTION_DOT":0.00013605,"MEAN_MOTION_DDOT":0},{"OBJECT_NAME":"COSMOS 2251 DEB","OBJECT_ID":"1993-036AE","EPOCH":"2026-03-04T03:03:16.625664","MEAN_MOTION":13.88940937,"ECCENTRICITY":0.0238835,"INCLINATION":74.0645,"RA_OF_ASC_NODE":309.2688,"ARG_OF_PERICENTER":45.5531,"MEAN_ANOMALY":81.1536,"EPHEMERIS_TYPE":0,"CLASSIFICATION_TYPE":"U","NORAD_CAT_ID":33789,"ELEMENT_SET_NO":999,"REV_AT_EPOCH":86225,"BSTAR":0.00076146,"MEAN_MOTION_DOT":1.136e-5,"MEAN_MOTION_DDOT":0},{"OBJECT_NAME":"COSMOS 2251 DEB","OBJECT_ID":"1993-036AG","EPOCH":"2026-03-03T20:21:13.082112","MEAN_MOTION":14.43618454,"ECCENTRICITY":0.0028873,"INCLINATION":74.1715,"RA_OF_ASC_NODE":248.1527,"ARG_OF_PERICENTER":59.7786,"MEAN_ANOMALY":48.7708,"EPHEMERIS_TYPE":0,"CLASSIFICATION_TYPE":"U","NORAD_CAT_ID":33791,"ELEMENT_SET_NO":999,"REV_AT_EPOCH":89222,"BSTAR":0.0010268,"MEAN_MOTION_DOT":3.476e-5,"MEAN_MOTION_DDOT":0},{"OBJECT_NAME":"COSMOS 2251 DEB","OBJECT_ID":"1993-036AH","EPOCH":"2026-03-03T20:08:55.275360","MEAN_MOTION":13.45993947,"ECCENTRICITY":0.0429352,"INCLINATION":73.8995,"RA_OF_ASC_NODE":215.7989,"ARG_OF_PERICENTER":266.3115,"MEAN_ANOMALY":217.6489,"EPHEMERIS_TYPE":0,"CLASSIFICATION_TYPE":"U","NORAD_CAT_ID":33792,"ELEMENT_SET_NO":999,"REV_AT_EPOCH":83533,"BSTAR":0.00091919,"MEAN_MOTION_DOT":9.36e-6,"MEAN_MOTION_DDOT":0}]
